STARLINK-1226
1 45229U 20012BD  26092.68267707  .00016476  00000+0  45459-3 0  9992
2 45229  53.1590 246.7531 0001188  85.1480 274.9659 15.37247529339090
STARLINK-1227
1 45230U 20012BE  26092.82630002  .00025235  00000+0  69060-3 0  9999
2 45230  53.1572 246.2407 0000670  69.7019 290.4057 15.37214953339236
STARLINK-1404
1 45686U 20035AF  26092.82342237  .00018247  00000+0  50170-3 0  9996
2 45686  53.1604 297.1808 0001251  97.5469 262.5677 15.37278988322677
STARLINK-1609
1 47621U 21012B   26092.64357230  .00025857  00000+0  70526-3 0  9994
2 47621  53.1613 313.3603 0000944 106.1371 253.9737 15.37304731283762
